[{"OBJECT_NAME":"OBJECT AE","OBJECT_ID":"2025-313AE","EPOCH":"2026-03-09T22:39:11.546496","MEAN_MOTION":15.21274921,"ECCENTRICITY":0.00138698,"INCLINATION":97.3973,"RA_OF_ASC_NODE":145.1623,"ARG_OF_PERICENTER":1.9486,"MEAN_ANOMALY":358.1801,"EPHEMERIS_TYPE":0,"CLASSIFICATION_TYPE":"U","NORAD_CAT_ID":67276,"ELEMENT_SET_NO":999,"REV_AT_EPOCH":1085,"BSTAR":0.00043089391,"MEAN_MOTION_DOT":9.592e-5,"MEAN_MOTION_DDOT":0},{"OBJECT_NAME":"ICUBE-1","OBJECT_ID":"2013-066S","EPOCH":"2026-03-09T21:15:50.265216","MEAN_MOTION":15.23110621,"ECCENTRICITY":0.00159988,"INCLINATION":97.5653,"RA_OF_ASC_NODE":53.5484,"ARG_OF_PERICENTER":327.1969,"MEAN_ANOMALY":32.8272,"EPHEMERIS_TYPE":0,"CLASSIFICATION_TYPE":"U","NORAD_CAT_ID":39432,"ELEMENT_SET_NO":999,"REV_AT_EPOCH":66928,"BSTAR":0.00081477483,"MEAN_MOTION_DOT":0.00019249,"MEAN_MOTION_DDOT":0}]
